[
  {
    "name": {
      "en": "Mercury",
      "fr": "Mercure"
    },
    "diameter": 4879,
    "axial_tilt": 0,
    "mean_density": 5427,
    "gravity": 3.7,
    "escape_velocity": 4.3,
    "rotation_period": 1407.6,
    "length_of_day": 4222.6,
    "mean_temperature": 167,
    "mass": 0.33011e+24,
    "volume": 6.083e+10,
    "moon_number": 0,
    "ring_number": 0,
    "orbit": {
      "semi_major_axis": 57.91e+6,
      "perihelion_distance": 46e+6,
      "aphelion_distance": 69.82e+6,
      "eccentricity": 0.20563069,
      "inclination": 7.00487,
      "ascending_node": 48.33167,
      "perihelion_argument": 77.45645,
      "orbital_period": 88,
      "orbital_speed": 47.4
    }
  },
  {
    "name": {
      "en": "Venus",
      "fr": "Vénus"
    },
    "diameter": 12104,
    "axial_tilt": 177.4,
    "mean_density": 5243,
    "gravity": 8.87,
    "escape_velocity": 10.36,
    "rotation_period": -5832.5,
    "length_of_day": 2802,
    "mean_temperature": 464,
    "mass": 4.8675e+24,
    "volume": 92.84e+10,
    "moon_number": 0,
    "ring_number": 0,
    "orbit": {
      "semi_major_axis": 108.21e+6,
      "perihelion_distance": 107.48e+6,
      "aphelion_distance": 108.94e+6,
      "eccentricity": 0.00677323,
      "inclination": 3.39471,
      "ascending_node": 76.68069,
      "perihelion_argument": 131.53298,
      "orbital_period": 224.7,
      "orbital_speed": 35
    }
  },
  {
    "name": {
      "en": "Earth",
      "fr": "Terre"
    },
    "diameter": 12756,
    "axial_tilt": 23.4,
    "mean_density": 5514,
    "gravity": 9.8,
    "escape_velocity": 11.2,
    "rotation_period": 23.9345,
    "length_of_day": 24,
    "mean_temperature": 15,
    "mass": 5.9723e+24,
    "volume": 108.321e+10,
    "moon_number": 1,
    "ring_number": 0,
    "orbit": {
      "semi_major_axis": 149.60e+6,
      "perihelion_distance": 147.09e+6,
      "aphelion_distance": 152.10e+6,
      "eccentricity": 0.01671022,
      "inclination": 0,
      "ascending_node": -11.26064,
      "perihelion_argument": 102.94719,
      "orbital_period": 365.2,
      "orbital_speed": 29.78
    }
  },
  {
    "name": {
      "en": "Mars",
      "fr": "Mars"
    },
    "diameter": 6792,
    "axial_tilt": 25.2,
    "mean_density": 3933,
    "gravity": 3.7,
    "escape_velocity": 5,
    "rotation_period": 24.6,
    "length_of_day": 24.7,
    "mean_temperature": -65,
    "mass": 0.64171e+24,
    "volume": 16.318e+10,
    "moon_number": 2,
    "ring_number": 0,
    "orbit": {
      "semi_major_axis": 227.92e+6,
      "perihelion_distance": 206.62e+6,
      "aphelion_distance": 249.23e+6,
      "eccentricity": 0.09341233,
      "inclination": 1.85061,
      "ascending_node": 49.57854,
      "perihelion_argument": 336.04084,
      "orbital_period": 687,
      "orbital_speed": 24.07
    }
  },
  {
    "name": {
      "en": "Jupiter",
      "fr": "Jupiter"
    },
    "diameter": 142984,
    "axial_tilt": 3.1,
    "mean_density": 1326,
    "gravity": 23.1,
    "escape_velocity": 59.5,
    "rotation_period": 9.9,
    "length_of_day": 9.9,
    "mean_temperature": -110,
    "mass": 1898.19e+24,
    "volume": 143128e+10,
    "moon_number": 67,
    "ring_number": 6,
    "orbit": {
      "semi_major_axis": 778.57e+6,
      "perihelion_distance": 740.52e+6,
      "aphelion_distance": 816.62e+6,
      "eccentricity": 0.04839266,
      "inclination": 1.30530,
      "ascending_node": 100.55615,
      "perihelion_argument": 14.75385,
      "orbital_period": 4331,
      "orbital_speed": 13.1
    }
  },
  {
    "name": {
      "en": "Saturn",
      "fr": "Saturne"
    },
    "diameter": 120536,
    "axial_tilt": 26.7,
    "mean_density": 687,
    "gravity": 9.0,
    "escape_velocity": 35.5,
    "rotation_period": 10.7,
    "length_of_day": 10.7,
    "mean_temperature": -140,
    "mass": 568.34e+24,
    "volume": 82713e+10,
    "moon_number": 62,
    "ring_number": 19,
    "orbit": {
      "semi_major_axis": 1433.53e+6,
      "perihelion_distance": 1352.55e+6,
      "aphelion_distance": 1514.50e+6,
      "eccentricity": 0.05415060,
      "inclination": 2.48446,
      "ascending_node": 113.71504,
      "perihelion_argument": 92.43194,
      "orbital_period": 10747,
      "orbital_speed": 9.7
    }
  },
  {
    "name": {
      "en": "Uranus",
      "fr": "Uranus"
    },
    "diameter": 51118,
    "axial_tilt": 97.8,
    "mean_density": 1271,
    "gravity": 8.7,
    "escape_velocity": 21.3,
    "rotation_period": -17.2,
    "length_of_day": 17.2,
    "mean_temperature": -195,
    "mass": 86.813e+24,
    "volume": 6833e+10,
    "moon_number": 27,
    "ring_number": 13,
    "orbit": {
      "semi_major_axis": 2872.46e+6,
      "perihelion_distance": 2741.30e+6,
      "aphelion_distance": 3003.62e+6,
      "eccentricity": 0.04716771,
      "inclination": 0.76986,
      "ascending_node": 74.22988,
      "perihelion_argument": 170.96424,
      "orbital_period": 30589,
      "orbital_speed": 6.8
    }
  },
  {
    "name": {
      "en": "Neptune",
      "fr": "Neptune"
    },
    "diameter": 49528,
    "axial_tilt": 28.3,
    "mean_density": 1638,
    "gravity": 11,
    "escape_velocity": 23.5,
    "rotation_period": 16.1,
    "length_of_day": 16.1,
    "mean_temperature": -200,
    "mass": 102.413e+24,
    "volume": 6254e+10,
    "moon_number": 14,
    "ring_number": 7,
    "orbit": {
      "semi_major_axis": 4495.06e+6,
      "perihelion_distance": 4444.45e+6,
      "aphelion_distance": 4545.67e+6,
      "eccentricity": 0.00858587,
      "inclination": 1.76917,
      "ascending_node": 131.72169,
      "perihelion_argument": 44.97135,
      "orbital_period": 59800,
      "orbital_speed": 5.4
    }
  },
  {
    "name": {
      "en": "Pluto",
      "fr": "Pluton"
    },
    "diameter": 2370,
    "axial_tilt": 122.5,
    "mean_density": 2095,
    "gravity": 0.7,
    "escape_velocity": 1.3,
    "rotation_period": -153.3,
    "length_of_day": 153.3,
    "mean_temperature": -225,
    "mass": 0.01303e+24,
    "volume": 0.697e+10,
    "moon_number": 5,
    "ring_number": 0,
    "orbit": {
      "semi_major_axis": 5906.38e+6,
      "perihelion_distance": 4436.82e+6,
      "aphelion_distance": 7375.93e+6,
      "eccentricity": 0.24880766,
      "inclination": 17.14175,
      "ascending_node": 110.30347,
      "perihelion_argument": 238.92881,
      "orbital_period": 90560,
      "orbital_speed": 4.7
    }
  }
]
